OBJECT_NAME,OBJECT_ID,EPOCH,MEAN_MOTION,ECCENTRICITY,INCLINATION,RA_OF_ASC_NODE,ARG_OF_PERICENTER,MEAN_ANOMALY,EPHEMERIS_TYPE,CLASSIFICATION_TYPE,NORAD_CAT_ID,ELEMENT_SET_NO,REV_AT_EPOCH,BSTAR,MEAN_MOTION_DOT,MEAN_MOTION_DDOT
STARS (KUKAI),2009-002G,2026-06-09T09:24:20.851200,14.95694106,.0008237,98.1538,107.3824,184.3259,175.7891,0,U,33498,999,93731,.31351E-3,.3428E-4,0
KKS-1 (KISEKI),2009-002H,2026-06-09T11:57:02.200032,14.83104394,.0006991,98.1192,82.8184,324.8419,35.2332,0,U,33499,999,93505,.16601E-3,.1297E-4,0
UK-DMC 2,2009-041C,2026-06-08T21:18:06.143904,14.76019080,.00012963,97.8828,295.0575,72.8745,287.2607,0,U,35683,999,90534,.16742289E-3,.1104E-4,0
OCEANSAT-2,2009-051A,2026-06-09T11:29:52.841184,13.99664333,.0014694,98.2324,148.0994,259.6173,100.3337,0,U,35931,999,87825,.7617E-4,.74E-6,0
SWISSCUBE,2009-051B,2026-06-09T05:34:22.374624,14.62466323,.0005536,98.4042,67.9819,231.7827,128.2876,0,U,35932,999,88799,.1843E-3,.884E-5,0
BEESAT-1,2009-051C,2026-06-09T12:16:18.064416,14.61708260,.0003918,98.3972,67.9173,247.5852,112.4933,0,U,35933,999,88806,.16607E-3,.778E-5,0
ITUPSAT1,2009-051E,2026-06-09T11:53:30.554592,14.60429234,.0006086,98.4055,67.1012,262.7226,97.3282,0,U,35935,999,88761,.15408E-3,.698E-5,0
DMSP 5D-3 F18 (USA 210),2009-057A,2026-06-09T12:05:23.040096,14.14892454,.0009862,98.9034,141.2897,274.0704,85.9341,0,U,35951,999,85850,.15149E-3,.248E-5,0
PROBA-2,2009-059B,2026-06-09T11:15:06.854112,14.54859132,.0012211,98.2450,343.9288,308.3568,51.6532,0,U,36037,999,88040,.5234E-4,.179E-5,0
YAOGAN-7,2009-069A,2026-06-09T10:31:46.289280,14.78002011,.0025931,98.0082,46.3534,65.6607,294.7307,0,U,36110,999,88848,.71254E-4,.464E-5,0
XIWANG-1 (HOPE-1),2009-072B,2026-06-09T11:48:26.392032,13.16437659,.0006808,100.4023,114.4470,251.1258,108.9117,0,U,36122,999,79199,-.82351E-3,-.359E-5,0
COSMOS 2463,2010-017A,2026-06-09T12:31:22.342368,13.71665234,.0036963,82.9608,255.3373,149.5587,226.7522,0,U,36519,999,80688,.2848E-4,.41E-6,0
CARTOSAT-2B,2010-035A,2026-06-09T11:45:32.429952,14.78650864,.0010555,97.9955,211.0887,210.0487,150.0119,0,U,36795,999,85871,.58372E-4,.375E-5,0
TISAT 1,2010-035E,2026-06-08T19:40:13.696608,15.31390446,.00001854,98.0700,105.6282,170.3248,189.7995,0,U,36799,999,86642,.66607275E-3,.20138E-3,0
YAOGAN-10,2010-038A,2026-06-09T13:08:24.421632,14.85325741,.0001661,97.8983,184.0131,87.8519,30.9361,0,U,36834,999,85607,.16428E-3,.1358E-4,0
SHIJIAN-6 04B (SJ-6 04B),2010-051B,2026-06-09T11:33:18.948384,14.99297414,.0009069,97.8687,165.8133,338.6635,21.4208,0,U,37180,999,85452,.93726E-4,.1083E-4,0
FENGYUN 3B,2010-059A,2026-06-09T12:48:22.539744,14.14840333,.002146,98.9624,206.5157,206.0309,260.2635,0,U,37214,999,80634,.48276E-4,.48E-6,0
COSMO-SKYMED 4,2010-060A,2026-06-08T09:32:08.023776,14.82162251,.00014135,97.8890,343.1246,83.8256,276.3118,0,U,37216,999,84326,.70656283E-4,.51E-5,0
O/OREOS (USA 219),2010-062C,2026-06-09T05:26:25.171008,14.93710062,.0012386,71.9704,98.3700,80.4823,279.7746,0,U,37224,999,11545,.20525E-3,.2113E-4,0
RESOURCESAT-2,2011-015A,2026-06-09T11:42:15.736032,14.21604772,.001013,98.7644,227.9824,280.3579,79.6456,0,U,37387,999,78508,.4299E-4,.5E-6,0
YOUTHSAT,2011-015B,2026-06-09T12:23:43.274976,14.25627192,.0014703,98.3678,134.9166,9.7334,103.9266,0,U,37388,999,78654,.9347E-4,.18E-5,0
APRIZESAT 6,2011-044F,2026-06-09T12:18:50.760000,14.76904612,.0044382,98.2371,70.8559,109.8469,68.2818,0,U,37793,999,79601,.1035E-3,.683E-5,0
JUGNU,2011-058B,2026-06-09T06:27:07.528032,14.13774628,.001855,19.9621,356.5333,349.0526,166.6651,0,U,37839,999,75790,.72297E-4,.405E-5,0
SRMSAT,2011-058D,2026-06-09T12:50:18.600864,14.11573956,.0011936,19.9710,105.7844,119.8301,40.8059,0,U,37841,999,75673,.52397E-4,.362E-5,0
SUOMI NPP,2011-061A,2026-06-09T12:23:53.071008,14.19515792,.0001959,98.7953,101.4451,24.0368,336.0899,0,U,37849,999,75735,.5124E-4,.64E-6,0
YAOGAN-12,2011-066B,2026-06-09T12:44:33.071712,15.26507752,.0008087,97.1152,199.4601,248.7806,111.2570,0,U,37875,999,81087,.24445E-3,.6319E-4,0
